ID,Address,Business Name,State,Zip Code,Website
1,225 Bush St,Radius,CA,99104,www.radius.com
2,225 Bush St,Radius,CA,99104,www.radius.com
3,225 Bush St,Radius,CA,99104,www.radius.com
4,225 Bush St,Radius,CA,99104,www.radius.com
5,225 Bush St,Radius,CA,99104,www.radius.com
6,225 Bush St,Radius,CA,99104,www.radius.com
7,225 Bush St,Radius,CA,99104,www.radius.com
8,225 Bush St,Radius,CA,99104,www.radius.com
9,225 Bush St,Radius,CA,99104,www.radius.com
10,225 Bush St,Radius,CA,99104,www.radius.com
11,225 Bush St,Radius,CA,99104,www.radius.com
12,225 Bush St,Radius,CA,99104,www.radius.com
13,225 Bush St,Radius,CA,99104,www.radius.com
14,225 Bush St,Radius,CA,99104,www.radius.com
15,225 Bush St,Radius,CA,99104,www.radius.com
16,225 Bush St,Radius,CA,99104,www.radius.com
17,225 Bush St,Radius,CA,99104,www.radius.com
18,225 Bush St,Radius,CA,99104,www.radius.com
19,225 Bush St,Radius,CA,99,104,www.radius.com
20,225 Bush St,Radius",CA,99104,www.radius.com
21,"225 Bush St
12th floor",Radius,CA,99104,www.radius.com
22,225 Bush St,Radius,CA,99104,www.radius.com
23,225 Bush St,Radius,CA,99104,www.radius.com
24,225 Bush St,Radius,CA,99104,www.radius.com
25,225 Bush St,Radius,CA,99104,www.radius.com
25,225 Bush St,Radius,CA,99104,www.radius.com
27,225 Bush St,Radius,CA,99104,www.radius.com
28,225 Bush St,Radius,CA,99104,www.radius.com
29,225 Bush St,Radius,CA,99104,www.radius.com
30,225 Bush St,Radius,CA,99104,www.radius.com
31,225 Bush St,Radius,CA,99104,www.radius.com
32,225 Bush St,Radius,CA,99104,www.radius.com
33,225 Bush St, 12th floor,Radius,CA,99104,www.radius.com
34,225 Bush St,Radius,CA,99104,www.radius.com
35,225 Bush St,Radius,CA,99104,www.radius.com
36,225 Bush St,Radius,CA,99104,www.radius.com
37,"225 Bush St
12th Floor",Radius,CA,99104,www.radius.com
38,225 Bush St,Radius,CA,99104,www.radius.com
39,225 Bush St,Radius,CA,99104,www.radius.com
40,225 Bush St,Radius,CA,99104,www.radius.com
41,225 Bush St,Radius,CA,99104,www.radius.com
42,225 Bush St,Radius,CA,99104,www.radius.com
43,225 Bush St,Radius,CA,99104,www.radius.com
44,225 Bush St,Radius,CA,99104,www.radius.com
45,225 Bush St,Radius,CA,99104,www.radius.com
46,225 Bush St,Radius,CA,99104,www.radius.com
47,225 Bush St,Radius,CA,99104,www.radius.com

48,225 Bush St,Radius,CA,99104,www.radius.com
49,225 Bush St,Radius,CA,99104,www.radius.com
50,225 Bush St,Radius,CA,99104,www.radius.com
51,225 Bush St,Radius,CA,99104,www.radius.com
52,225 Bush St,Radius,CA,99104,www.radius.com
53,225 Bush St,Radius,CA,99104,www.radius.com
54,225 Bush St,Radius,CA,99104,www.radius.com
55,225 Bush St,Radius,CA,99104,www.radius.com
56,225 Bush St,Radius,CA,99104,www.radius.com
57,225 Bush St,Radius,CA,99104,www.radius.com
58,225 Bush St,Radius,CA,99104,www.radius.com
59,225 Bush St,Radius,CA,99104,www.radius.com
60,225 Bush St,Radius,CA,99104,www.radius.com
61,225 Bush St,Radius,CA,99104,www.radius.com
62,225 Bush St, 12th Floor,Radius,CA,99104,www.radius.com
63,225 Bush St,Radius,CA,99104,www.radius.com
64,225 Bush St,Radius,CA,99104,www.radius.com
65,225 Bush St,Radius,CA,99104,www.radius.com






66,225 Bush St,Radius,CA,99104,www.radius.com
67,225 Bush St,Radius,CA,99104,www.radius.com
68,225 Bush St,Radius,CA,99104,www.radius.com
69,225 Bush St,Radius,CA,99104,www.radius.com
70,225 Bush St,Radius,CA,99104,www.radius.com
71,225 Bush St,Radius,CA,99104,www.radius.com
72,225 Bush St,Radius,CA,99104,www.radius.com
73,225 Bush St,Radius,CA,99104,www.radius.com

74,225 Bush St,Radius,CA,99104,www.radius.com
75,225 Bush St,Radius,CA,99104,www.radius.com
76,225 Bush St,Radius,CA,99104,www.radius.com
77,225 Bush St,Radius,CA,99104,www.radius.com
78,225 Bush St,Radius,CA,99104,www.radius.com
79,225 Bush St,Radius,CA,99104,www.radius.com
80,225 Bush St,Radius,CA,99104,www.radius.com
81,225 Bush St,Radius,CA,99104,www.radius.com
82,225 Bush St,Radius,CA,99104,www.radius.com
83,225 Bush St,Radius,CA,99104,www.radius.com
84,225 Bush St,Radius,CA,99104,www.radius.com
85,225 Bush St,Radius,CA,99104,www.radius.com
86,225 Bush St,Radius,CA,99104,www.radius.com
87,225 Bush St,Radius,CA,99104,www.radius.com
88,225 Bush St,Radius,CA,99104,www.radius.com
89,225 Bush St,Radius,CA,99104,www.radius.com
90,225 Bush St,Radius,CA,99104,www.radius.com
91,225 Bush St,Radius,CA,99104,www.radius.com
92,225 Bush St,Radius,CA,99104,www.radius.com
93,225 Bush St,Radius,CA,99104,www.radius.com
94,225 Bush St,Radius,CA,99104,www.radius.com
95,225 Bush St,Radius,CA,99104,www.radius.com
96,225 Bush St,Radius,CA,99104,www.radius.com
97,225 Bush St,Radius,CA,99104,www.radius.com
98,225 Bush St,Radius,CA,99104,www.radius.com
99,225 Bush St,Radius,CA,99104,www.radius.com
100,225 Bush St,Radius,CA,99104,www.radius.com
101,225 Bush St,Radius,CA,99104,www.radius.com
102,225 Bush St,Radius,CA,99104,www.radius.com
103,225 Bush St,Radius,CA,99104,www.radius.com
104,225 Bush St,Radius,CA,99104,www.radius.com
105,225 Bush St,Radius,CA,99104,www.radius.com
106,225 Bush St,Radius,CA,99104,www.radius.com
107,225 Bush St,Radius,CA,99104,www.radius.com
108,225 Bush St,Radius,CA,99104,www.radius.com
109,225 Bush St,Radius,CA,99104,www.radius.com
110,225 Bush St,Radius,CA,99104,www.radius.com
111,225 Bush St,Radius,CA,99104,www.radius.com
112,225 Bush St,Radius,CA,99104,www.radius.com
113,225 Bush St,Radius,CA,99104,www.radius.com
114,225 Bush St,Radius,CA,99104,www.radius.com
113,225 Bush St,Radius,CA,99104,www.radius.com
116,225 Bush St,Radius,CA,99104,www.radius.com
117,225 Bush St,Radius,CA,99104,www.radius.com
118,225 Bush St,Radius,CA,99104,www.radius.com
120,225 Bush St,Radius,CA,99104,www.radius.com
120,225 Bush St,Radius,CA,99104,www.radius.com
121,225 Bush St,Radius,CA,99104,www.radius.com
122,225 Bush St,Radius,CA,99104,www.radius.com
123,225 Bush St,Radius,CA,99104,www.radius.com
124,225 Bush St,Radius,CA,99104,www.radius.com
125,225 Bush St,Radius,CA,99104,www.radius.com
126,225 Bush St,Radius,CA,99104,www.radius.com
127,225 Bush St,Radius,CA,99104,www.radius.com
130,225 Bush St,Radius,CA,99104,www.radius.com
129,225 Bush St,Radius,CA,99104,www.radius.com
130,225 Bush St,Radius,CA,99104,www.radius.com
131,225 Bush St,Radius,CA,99104,www.radius.com
132,225 Bush St,Radius,CA,99104,www.radius.com
133,225 Bush St,Radius,CA,99104,www.radius.com
134,225 Bush St,Radius,CA,99104,www.radius.com
135,225 Bush St,Radius,CA,99104,www.radius.com
136,225 Bush St,Radius,CA,99104,www.radius.com
137,225 Bush St,Radius,CA,99104,www.radius.com
138,225 Bush St,Radius,CA,99104,www.radius.com
139,225 Bush St,Radius,CA,99104,www.radius.com
140,225 Bush St,Radius,CA,99104,www.radius.com
141,225 Bush St,Radius,CA,99104,www.radius.com
142,225 Bush St,Radius,CA,99104,www.radius.com
143,225 Bush St,Radius,CA,99104,www.radius.com
144,225 Bush St,Radius,CA,99104,www.radius.com
145,225 Bush St,Radius,CA,99104,www.radius.com
146,225 Bush St,Radius,CA,99104,www.radius.com
147,225 Bush St,Radius,CA,99104,www.radius.com
148,225 Bush St,Radius,CA,99104,www.radius.com
149,225 Bush St,Radius,CA,99104,www.radius.com
150,225 Bush St,Radius,CA,99104,www.radius.com
151,225 Bush St,Radius,CA,99104,www.radius.com
152,225 Bush St,Radius,CA,99104,www.radius.com
153,225 Bush St,Radius,CA,99104,www.radius.com
154,225 Bush St,Radius,CA,99104,www.radius.com
155,225 Bush St,Radius,CA,99104,www.radius.com
156,225 Bush St,Radius,CA,99104,www.radius.com
157,225 Bush St,Radius,CA,99104,www.radius.com
158,225 Bush St,Radius,CA,99104,www.radius.com
159,225 Bush St,Radius,CA,99104,www.radius.com
160,225 Bush St,Radius,CA,99104,www.radius.com
161,225 Bush St,Radius,CA,99104,www.radius.com
162,225 Bush St,Radius,CA,99104,www.radius.com
163,225 Bush St,Radius,CA,99104,www.radius.com
164,225 Bush St,Radius,CA,99104,www.radius.com
165,225 Bush St,Radius,CA,99104,www.radius.com
166,225 Bush St,Radius,CA,99104,www.radius.com
167,225 Bush St,Radius,CA,99104,www.radius.com
168,225 Bush St,Radius,CA,99104,www.radius.com
169,225 Bush St,Radius,CA,99104,www.radius.com
170,225 Bush St,Radius",CA,99104,www.radius.com
171,225 Bush St,Radius,CA,99104,www.radius.com
172,225 Bush St,Radius,CA,99104,www.radius.com
173,225 Bush St,Radius,CA,99104,www.radius.com
174,225 Bush St,Radius,CA,99104,www.radius.com
175,225 Bush St,Radius,CA,99104,www.radius.com
176,225 Bush St,Radius",CA,99104,www.radius.com
177,225 Bush St,Radius,CA,99104,www.radius.com
178,225 Bush St,Radius,CA,99104,www.radius.com
179,225 Bush St,Radius,CA,99104,www.radius.com
180,225 Bush St,Radius,CA,99104,www.radius.com
181,225 Bush St,Radius,CA,99104,www.radius.com
182,225 Bush St,Radius,CA,99104,www.radius.com
183,225 Bush St,Radius,CA,99104,www.radius.com
184,225 Bush St,Radius,CA,99104,www.radius.com
185,225 Bush St,Radius,CA,99104,www.radius.com
186,225 Bush St,Radius,CA,99104,www.radius.com
187,225 Bush St,Radius,CA,99104,www.radius.com
188,225 Bush St,Radius,CA,99104,www.radius.com
189,225 Bush St,Radius,CA,99104,www.radius.com
190,225 Bush St,Radius,CA,99104,www.radius.com
191,225 Bush St,Radius,CA,99104,www.radius.com
192,225 Bush St,Radius,CA,99104,www.radius.com
193,225 Bush St,Radius,CA,99104,www.radius.com
194,225 Bush St,Radius,CA,99104,www.radius.com
195,225 Bush St,Radius,CA,99104,www.radius.com

196,225 Bush St,Radius,CA,99104,www.radius.com
197,225 Bush St,Radius,CA,99104,www.radius.com
198,225 Bush St,Radius,CA,99104,www.radius.com
199,225 Bush St,Radius,CA,99104,www.radius.com
200,225 Bush St,Radius,CA,99104,www.radius.com
201,225 Bush St,Radius,CA,99104,www.radius.com
202,225 Bush St,Radius,CA,99104,www.radius.com
203,225 Bush St,Radius,CA,99104,www.radius.com
204,225 Bush St,Radius,CA,99104,www.radius.com
205,225 Bush St,Radius,CA,99104,www.radius.com
206,225 Bush St,Radius,CA,99104,www.radius.com
207,225 Bush St,Radius,CA,99104,www.radius.com
208,225 Bush St,Radius,CA,99104,www.radius.com
209,225 Bush St,Radius,CA,99104,www.radius.com
210,225 Bush St,Radius,CA,99104,www.radius.com
211,225 Bush St,Radius,CA,99104,www.radius.com
212,225 Bush St,Radius,CA,99104,www.radius.com